{"fetched_at":"2026-07-07T07:58:14.001Z","source":"https://celestrak.org/NORAD/elements/gp.php?GROUP=spire&FORMAT=JSON","constellation":"spire","records":[{"OBJECT_NAME":"LEMUR-2-HUBBLE-4","OBJECT_ID":"2025-135AP","EPOCH":"2026-07-06T15:12:06.994656","CLASSIFICATION_TYPE":"U","MEAN_MOTION":14.93667872,"ECCENTRICITY":0.0001904,"INCLINATION":97.7713,"RA_OF_ASC_NODE":301.3116,"ARG_OF_PERICENTER":187.398,"MEAN_ANOMALY":172.7211,"EPHEMERIS_TYPE":0,"NORAD_CAT_ID":64565,"ELEMENT_SET_NO":999,"REV_AT_EPOCH":5677,"BSTAR":0.00012298,"MEAN_MOTION_DOT":0.00001243,"MEAN_MOTION_DDOT":0},{"OBJECT_NAME":"LEMUR-2-SEJONG-2","OBJECT_ID":"2025-135BL","EPOCH":"2026-07-06T19:48:53.372736","CLASSIFICATION_TYPE":"U","MEAN_MOTION":14.96872498,"ECCENTRICITY":0.0003122,"INCLINATION":97.7708,"RA_OF_ASC_NODE":302.7156,"ARG_OF_PERICENTER":256.0613,"MEAN_ANOMALY":104.0262,"EPHEMERIS_TYPE":0,"NORAD_CAT_ID":64586,"ELEMENT_SET_NO":999,"REV_AT_EPOCH":5688,"BSTAR":0.00025302,"MEAN_MOTION_DOT":0.00002843,"MEAN_MOTION_DDOT":0},{"OBJECT_NAME":"LEMUR-2-HUBBLE-5","OBJECT_ID":"2025-135BT","EPOCH":"2026-07-06T07:27:01.838016","CLASSIFICATION_TYPE":"U","MEAN_MOTION":14.94194144,"ECCENTRICITY":0.00040937,"INCLINATION":97.7734,"RA_OF_ASC_NODE":301.6518,"ARG_OF_PERICENTER":274.4902,"MEAN_ANOMALY":85.585,"EPHEMERIS_TYPE":0,"NORAD_CAT_ID":64840,"ELEMENT_SET_NO":999,"REV_AT_EPOCH":5676,"BSTAR":0.00014617556,"MEAN_MOTION_DOT":0.00001509,"MEAN_MOTION_DDOT":0},{"OBJECT_NAME":"LEMUR-2-KARENDARRELL","OBJECT_ID":"2025-135BU","EPOCH":"2026-07-06T06:14:48.937632","CLASSIFICATION_TYPE":"U","MEAN_MOTION":15.00415021,"ECCENTRICITY":0.00115125,"INCLINATION":97.7697,"RA_OF_ASC_NODE":303.4406,"ARG_OF_PERICENTER":133.2571,"MEAN_ANOMALY":226.9615,"EPHEMERIS_TYPE":0,"NORAD_CAT_ID":64841,"ELEMENT_SET_NO":999,"REV_AT_EPOCH":5687,"BSTAR":0.0006440855,"MEAN_MOTION_DOT":0.00008052,"MEAN_MOTION_DDOT":0},{"OBJECT_NAME":"LEMUR-2-LUCILLE-ROSE","OBJECT_ID":"2025-135BV","EPOCH":"2026-07-06T13:36:42.349248","CLASSIFICATION_TYPE":"U","MEAN_MOTION":15.00418506,"ECCENTRICITY":0.0013752,"INCLINATION":97.772,"RA_OF_ASC_NODE":303.7815,"ARG_OF_PERICENTER":215.7297,"MEAN_ANOMALY":144.3008,"EPHEMERIS_TYPE":0,"NORAD_CAT_ID":65403,"ELEMENT_SET_NO":999,"REV_AT_EPOCH":5154,"BSTAR":0.0004657,"MEAN_MOTION_DOT":0.00005807,"MEAN_MOTION_DDOT":0},{"OBJECT_NAME":"LEMUR-2-AFFIE-WAUWIE","OBJECT_ID":"2025-248C","EPOCH":"2026-07-05T19:47:57.109056","CLASSIFICATION_TYPE":"U","MEAN_MOTION":15.27976863,"ECCENTRICITY":0.0008364,"INCLINATION":45.3926,"RA_OF_ASC_NODE":13.9564,"ARG_OF_PERICENTER":202.7682,"MEAN_ANOMALY":157.2838,"EPHEMERIS_TYPE":0,"NORAD_CAT_ID":66295,"ELEMENT_SET_NO":999,"REV_AT_EPOCH":3744,"BSTAR":0.00082702,"MEAN_MOTION_DOT":0.00022785,"MEAN_MOTION_DDOT":0},{"OBJECT_NAME":"LEMUR-2-DEANANDMAEVE","OBJECT_ID":"2025-276N","EPOCH":"2026-07-06T03:27:54.884736","CLASSIFICATION_TYPE":"U","MEAN_MOTION":15.19983006,"ECCENTRICITY":0.0004246,"INCLINATION":97.4199,"RA_OF_ASC_NODE":260.3076,"ARG_OF_PERICENTER":297.3184,"MEAN_ANOMALY":62.7619,"EPHEMERIS_TYPE":0,"NORAD_CAT_ID":66678,"ELEMENT_SET_NO":999,"REV_AT_EPOCH":3329,"BSTAR":0.0003511,"MEAN_MOTION_DOT":0.00007494,"MEAN_MOTION_DDOT":0},{"OBJECT_NAME":"LEMUR-2-STAS-GORBUK","OBJECT_ID":"2025-276W","EPOCH":"2026-07-06T16:33:59.256288","CLASSIFICATION_TYPE":"U","MEAN_MOTION":15.195998,"ECCENTRICITY":0.0003531,"INCLINATION":97.4234,"RA_OF_ASC_NODE":260.8973,"ARG_OF_PERICENTER":291.0562,"MEAN_ANOMALY":69.0295,"EPHEMERIS_TYPE":0,"NORAD_CAT_ID":66686,"ELEMENT_SET_NO":999,"REV_AT_EPOCH":3337,"BSTAR":0.00024126,"MEAN_MOTION_DOT":0.00005069,"MEAN_MOTION_DDOT":0},{"OBJECT_NAME":"LEMUR-2-TEODOR","OBJECT_ID":"2025-276DG","EPOCH":"2026-07-06T15:39:47.918016","CLASSIFICATION_TYPE":"U","MEAN_MOTION":15.2127598,"ECCENTRICITY":0.0002363,"INCLINATION":97.4138,"RA_OF_ASC_NODE":261.1214,"ARG_OF_PERICENTER":97.1233,"MEAN_ANOMALY":263.0271,"EPHEMERIS_TYPE":0,"NORAD_CAT_ID":66768,"ELEMENT_SET_NO":999,"REV_AT_EPOCH":3340,"BSTAR":0.00020592,"MEAN_MOTION_DOT":0.00004534,"MEAN_MOTION_DDOT":0},{"OBJECT_NAME":"LEMUR-2-LAILA","OBJECT_ID":"2025-276DQ","EPOCH":"2026-07-06T16:32:50.377344","CLASSIFICATION_TYPE":"U","MEAN_MOTION":15.21500711,"ECCENTRICITY":0.000286,"INCLINATION":97.4163,"RA_OF_ASC_NODE":261.2907,"ARG_OF_PERICENTER":107.0369,"MEAN_ANOMALY":253.118,"EPHEMERIS_TYPE":0,"NORAD_CAT_ID":66776,"ELEMENT_SET_NO":999,"REV_AT_EPOCH":3341,"BSTAR":0.00023577,"MEAN_MOTION_DOT":0.00005236,"MEAN_MOTION_DDOT":0},{"OBJECT_NAME":"LEMUR-2-CELIJO-SB-PK","OBJECT_ID":"2025-276DW","EPOCH":"2026-07-06T17:08:41.141184","CLASSIFICATION_TYPE":"U","MEAN_MOTION":15.00225368,"ECCENTRICITY":0.0007471,"INCLINATION":97.52,"RA_OF_ASC_NODE":257.8487,"ARG_OF_PERICENTER":85.1218,"MEAN_ANOMALY":275.0859,"EPHEMERIS_TYPE":0,"NORAD_CAT_ID":66781,"ELEMENT_SET_NO":999,"REV_AT_EPOCH":2555,"BSTAR":0.00037444,"MEAN_MOTION_DOT":0.0000463,"MEAN_MOTION_DDOT":0},{"OBJECT_NAME":"LEMUR-2-FINNIAN","OBJECT_ID":"2025-276DX","EPOCH":"2026-07-06T03:40:23.816352","CLASSIFICATION_TYPE":"U","MEAN_MOTION":15.00543596,"ECCENTRICITY":0.0008128,"INCLINATION":97.5336,"RA_OF_ASC_NODE":257.5504,"ARG_OF_PERICENTER":31.0182,"MEAN_ANOMALY":329.152,"EPHEMERIS_TYPE":0,"NORAD_CAT_ID":66782,"ELEMENT_SET_NO":999,"REV_AT_EPOCH":2284,"BSTAR":0.00024129,"MEAN_MOTION_DOT":0.00002987,"MEAN_MOTION_DDOT":0},{"OBJECT_NAME":"LEMUR-2-STARLIGHT","OBJECT_ID":"2025-276DY","EPOCH":"2026-07-06T17:26:24.664704","CLASSIFICATION_TYPE":"U","MEAN_MOTION":14.99285417,"ECCENTRICITY":0.0014691,"INCLINATION":97.5223,"RA_OF_ASC_NODE":257.6975,"ARG_OF_PERICENTER":71.9073,"MEAN_ANOMALY":288.3749,"EPHEMERIS_TYPE":0,"NORAD_CAT_ID":66783,"ELEMENT_SET_NO":999,"REV_AT_EPOCH":3312,"BSTAR":0.0004374,"MEAN_MOTION_DOT":0.00005295,"MEAN_MOTION_DDOT":0},{"OBJECT_NAME":"LEMUR-2-TARTIFLETTE","OBJECT_ID":"2025-276DZ","EPOCH":"2026-07-06T17:24:00.207360","CLASSIFICATION_TYPE":"U","MEAN_MOTION":14.99277169,"ECCENTRICITY":0.001373,"INCLINATION":97.5225,"RA_OF_ASC_NODE":257.7037,"ARG_OF_PERICENTER":79.6577,"MEAN_ANOMALY":280.6194,"EPHEMERIS_TYPE":0,"NORAD_CAT_ID":66784,"ELEMENT_SET_NO":999,"REV_AT_EPOCH":3312,"BSTAR":0.00034914,"MEAN_MOTION_DOT":0.00004212,"MEAN_MOTION_DDOT":0},{"OBJECT_NAME":"LEMUR-2-VUKASIN","OBJECT_ID":"2025-276EA","EPOCH":"2026-07-06T18:27:11.841120","CLASSIFICATION_TYPE":"U","MEAN_MOTION":15.00493817,"ECCENTRICITY":0.0004393,"INCLINATION":97.5243,"RA_OF_ASC_NODE":258.0885,"ARG_OF_PERICENTER":79.4597,"MEAN_ANOMALY":280.7122,"EPHEMERIS_TYPE":0,"NORAD_CAT_ID":66785,"ELEMENT_SET_NO":999,"REV_AT_EPOCH":3308,"BSTAR":0.00032922,"MEAN_MOTION_DOT":0.00004091,"MEAN_MOTION_DDOT":0},{"OBJECT_NAME":"LEMUR-2-HOTSPUR-TOM","OBJECT_ID":"2025-276EB","EPOCH":"2026-07-06T17:15:10.376640","CLASSIFICATION_TYPE":"U","MEAN_MOTION":14.99183448,"ECCENTRICITY":0.0013989,"INCLINATION":97.5216,"RA_OF_ASC_NODE":257.6747,"ARG_OF_PERICENTER":70.923,"MEAN_ANOMALY":289.3507,"EPHEMERIS_TYPE":0,"NORAD_CAT_ID":66786,"ELEMENT_SET_NO":999,"REV_AT_EPOCH":3305,"BSTAR":0.00037145,"MEAN_MOTION_DOT":0.00004474,"MEAN_MOTION_DDOT":0}]}
